[
    {
        "Altitude(m)": 611965.2273718357,
        "Argument of Periapsis(deg)": 0.0,
        "Eccentricity": 0.0,
        "Inclination(deg)": 60.0,
        "Latitude(deg)": 59.14028892534673,
        "Longitude(deg)": 138.96992212940415,
        "Mean Anomaly(deg)": 81.81820000000003,
        "RAAN(deg)": 165.0,
        "Satellite Name": "Test1 731",
        "Satellite Number": 731,
        "Semi-Major Axis(m)": 6980739.136638005,
        "Time(s)": 0
    },
    {
        "Altitude(m)": 611995.8523489097,
        "Argument of Periapsis(deg)": 0.00010418945913296404,
        "Eccentricity": 0.0,
        "Inclination(deg)": 60.0,
        "Latitude(deg)": 59.28338764683819,
        "Longitude(deg)": 140.10328910779756,
        "Mean Anomaly(deg)": 82.43830614546184,
        "RAAN(deg)": 164.99957995086024,
        "Satellite Name": "Test1 731",
        "Satellite Number": 731,
        "Semi-Major Axis(m)": 6980739.136638005,
        "Time(s)": 10
    }
]